latitude,longitude,altitude,geometry,@id,amenity,emergency,healthcare,name,toilets:wheelchair,wheelchair,operator,ele,addr:city,addr:housenumber,addr:postcode,addr:street,fax,operator:type,phone,website,url,wikidata,name:it,opening_hours,operator:wikidata,description,addr:country,name:en,construction,addr:housename,note,source,access,addr:province,ref:anncsu,email,healthcare:speciality,entrance,healthcare_1,addr:place,alt_name,helipad,internet_access,addr:village,contact:phone,image,nohousenumber,addr:unit,operator:wikipedia,official_name
43.8506532,10.5175368,,Point,node/248898429,hospital,yes,hospital,Presidio Ospedaliero Piana di Lucca,yes,yes,,,,,,,,,,,,,,,,,,,,,,,,,,,,,,,,,,,,,,,,
44.2179693,12.0331217,,Point,node/295017561,hospital,,hospital,"Ospedali Privati Forlì ""Villa Serena""",,,Ospadati Privati Forlì,,,,,,,,,,,,,,,,,,,,,,,,,,,,,,,,,,,,,,,
44.2171813,12.0582783,,Point,node/295030604,hospital,,hospital,"Ospedali Privati Forlì ""Villa Igea""",,,Ospedali Privati Forlì,,,,,,,,,,,,,,,,,,,,,,,,,,,,,,,,,,,,,,,
44.2074005,12.0191851,,Point,node/303496338,hospital,ambulance_station,hospital,Pronto Soccorso,,yes,,,,,,,,,,,,,,,,,,,,,,,,,,,,,,,,,,,,,,,,
44.3448296,8.4345954,,Point,node/368280172,hospital,,,RSA del Santuario,,,,,,,,,,,,,,,,,,,,,,,,,,,,,,,,,,,,,,,,,,
43.6143726,11.4772102,,Point,node/384732739,hospital,,,,,,,123.6542969,,,,,,,,,,,,,,,,,,,,,,,,,,,,,,,,,,,,,,
41.2674854,16.4296805,,Point,node/387221877,hospital,,,San Nicola Pellegrino,,,,,,,,,,,,,,,,,,,,,,,,,,,,,,,,,,,,,,,,,,
42.4622155,14.1990094,,Point,node/414248160,hospital,,hospital,"Casa di Cura Privata ""Pierangeli""",,yes,Gruppo Synergo,,Pescara,1,65124,Piazza Luigi Pierangeli,+39 085 424 1391,private,+39 085 42411,https://www.grupposynergo.com/,,,,,,,,,,,,,,,,,,,,,,,,,,,,,,
41.236186,16.3046502,,Point,node/418759967,hospital,,,Guardia Medica,,yes,,,,,,,,,,,,,,,,,,,,,,,,,,,,,,,,,,,,,,,,
42.8158783,10.319724,,Point,node/424383977,hospital,,hospital,O.C.E. Ospedale Civile Elbano,,,,,,,,,,,,,,,,,,,,,,,,,,,,,,,,,,,,,,,,,,
41.513907,15.3318254,,Point,node/429375430,hospital,,,Ospedale Francesco Lastaria,,,,,,,,,,,,,,,,,,,,,,,,,,,,,,,,,,,,,,,,,,
41.8870757,12.3983943,,Point,node/434692525,hospital,yes,,Aurelia Hospital,,yes,,,,,,,,,,,http://www.aureliahospital.com/,Q30279876,,,,,,,,,,,,,,,,,,,,,,,,,,,,
40.424833,15.1941453,,Point,node/450198361,hospital,,hospital,Ospedale di Roccadaspide,,,,,,,,,,,,,,,,,,,,,,,,,,,,,,,,,,,,,,,,,,
42.7660981,10.3926002,,Point,node/464313412,hospital,,hospital,Guardia Medica - Medical Assistance,,,,,,,,,,,,,,,,,,,,,,,,,,,,,,,,,,,,,,,,,,
42.8065839,10.1965584,,Point,node/465614224,hospital,,hospital,Guardia Medica - Medical Assistance,,,,,,,,,,,,,,,,,,,,,,,,,,,,,,,,,,,,,,,,,,
43.4997838,12.9414537,,Point,node/477370529,hospital,,,,,,,,,,,,,,,,,,,,,,,,,,,,,,,,,,,,,,,,,,,,,
43.7593113,15.7775458,,Point,node/485615985,hospital,,hospital,,,,,,,,,,,,,,,,,,,,,,,,,,,,,,,,,,,,,,,,,,,
43.2476802,13.5079439,,Point,node/519018205,hospital,,hospital,Ospedale,,,,,Corridonia,,62014,,,,,,,,,,,,,,,,,,,,,,,,,,,,,,,,,,,
44.4245769,12.2045274,,Point,node/528899706,hospital,,hospital,Casa di cura San Francesco,,,,,,,,,,,,,,,,,,,,,,,,,,,,,,,,,,,,,,,,,,
43.7524277,11.185848,,Point,node/533694525,hospital,,,Humanitas,,yes,,,,,,,,,,,,,,,,,,,,,,,,,,,,,,,,,,,,,,,,
43.9585304,11.3746642,,Point,node/534447403,hospital,yes,hospital,Pronto Soccorso Ospedale del Mugello,,,,,,,,,,,,,,,,,,,,,,,,,,,,,,,,,,,,,,,,,,
41.8767423,16.1620513,,Point,node/534609447,hospital,,,,,,,,,,,,,,,,,,,,,,,,,,,,,,,,,,,,,,,,,,,,,
40.7605783,14.020801,,Point,node/536513332,hospital,,,Ospedale Civile Albano Francescano,,,,,,,,,,,,,,,,,,,,,,,,,,,,,,,,,,,,,,,,,,
40.4256661,15.1921281,,Point,node/546428302,hospital,,hospital,Distretto ASL SA3 di Roccadaspide,,,,,,,,,,,,,,,,,,,,,,,,,,,,,,,,,,,,,,,,,,
40.9932633,17.2253764,,Point,node/567243847,hospital,,,Punto di primo intervento,,,,,,,,,,,,,,,,,,,,,,,,,,,,,,,,,,,,,,,,,,
42.8514698,13.6227292,,Point,node/595790313,hospital,,hospital,Casa di Cura San Giuseppe,,,Suore Ospedaliere,,Ascoli Piceno,6,63100,Via dei Girasoli,,,+39 0736 42325; +39 0736 42335,https://ascoli.ospedaliere.it/,,,,,,,,,,,,,,,,,,,,,,,,,,,,,,
41.1201512,16.487242,,Point,node/597396898,hospital,,,,,,,,,,,,,,,,,,,,,,,,,,,,,,,,,,,,,,,,,,,,,
43.9427299,11.9014853,,Point,node/608646294,hospital,,,"Ospedale ""Nefetti""",,,,,,,,,,,,,,,,,,,,,,,,,,,,,,,,,,,,,,,,,,
44.0929466,12.404185,,Point,node/611819914,hospital,,,,,,,,,,,,,,,,,,,,,,,,,,,,,,,,,,,,,,,,,,,,,
42.8492514,13.5881776,,Point,node/644135437,hospital,,hospital,Casa di Cura Villa San Marco,,,,,Ascoli Piceno,11,63100,Via 3 Ottobre,,,+39 0736 43588,https://www.villasanmarco.it/,,,,,,,,,,,,,,,,,,,,,,,,,,,,,,
41.0922843,16.0763594,,Point,node/667117500,hospital,,,Ospedale Civile,,,,,,,,,,,,,,,,,,,,,,,,,,,,,,,,,,,,,,,,,,
43.5712481,12.1534255,,Point,node/703139826,hospital,yes,hospital,Ospedale Sansepolcro,,,,,Sansepolcro,101,52037,Viale Galileo Galilei,,,,,,,,,,,,,,,,,,,,,,,,,,,,,,,,,,
43.8012749,11.2483332,,Point,node/715801424,hospital,,hospital,C.T.O.,,yes,,,,,,,,,,,,,,,,,,,,,,,,,,,,,,,,,,,,,,,,
44.1894694,12.1278935,,Point,node/725632990,hospital,,hospital,,,,,,,,,,,,,,,,,,,,,,,,,,,,,,,,,,,,,,,,,,,
43.2342658,13.6887546,,Point,node/736622623,hospital,,hospital,,,,,,,,,,,,,,,,,,,,,,,,,,,,,,,,,,,,,,,,,,,
43.9103491,16.3978512,,Point,node/769594244,hospital,,hospital,Zdravstveni dom Vrlika,,,,,,,,,,,,,,,,,,,,,,,,,,,,,,,,,,,,,,,,,,
42.0688096,12.7624968,,Point,node/799400828,hospital,ambulance_station,,San Salvatore,,,,,,,,,,,,,,,,,,,,,,,,,,,,,,,,,,,,,,,,,,
41.8023637,12.4486445,,Point,node/804465318,hospital,,hospital,I.F.O. Istituto Regina Elena e Istituto San Gallicano,,,,,,23,00144,Via Fermo Ognibene,,,,,,,Istituto San Gallicano,Mo-Fr; Sa 08:00-01:00,,,,,,,,,,,,,,,,,,,,,,,,,,
41.7055843,15.9699458,,Point,node/806505348,hospital,,hospital,,,,,,,,,,,,,,,,,,,,,,,,,,,,,,,,,,,,,,,,,,,
44.2816357,11.1097291,,Point,node/811406978,hospital,,,Vergato,,,,,,,,,,,,,,,,,,,,,,,,,,,,,,,,,,,,,,,,,,
41.7751867,12.9209545,,Point,node/839208231,hospital,,hospital,Centro Unico di Prenotazione di Valmontone,,,,,Valmontone,8,00038,Via Porta Napoletana,,,,,,,,,,,,,,,,,,,,,,,,,,,,,,,,,,
44.3193674,8.491168,,Point,node/861803093,hospital,,,Emergency Room,,yes,,,,,,,,,,,,,,,,,,,,,,,,,,,,,,,,,,,,,,,,
41.7123558,12.7170153,,Point,node/1035723052,hospital,,,Villa delle Querce,,,,,,,,,,,,,,,,,,,,,,,,,,,,,,,,,,,,,,,,,,
43.6122663,11.4647121,,Point,node/1047704499,hospital,,,Frate Sole,,,,,,,,,,,,,,,,,,,,,,,,,,,,,,,,,,,,,,,,,,
43.6577621,11.18653,,Point,node/1088083292,hospital,,hospital,A.S.L.,,,ASL,,,,,,,,,,,,,,Q3631467,,,,,,,,,,,,,,,,,,,,,,,,,
40.6150379,14.9726498,,Point,node/1089138199,hospital,,hospital,Santa Maria della Speranza,,,,,,,,,,,,,,,,,,,,,,,,,,,,,,,,,,,,,,,,,,
40.5241118,14.9216431,,Point,node/1107808246,hospital,,,Campolongo Hospital,,,,,,,,,,,,,,,,,,,,,,,,,,,,,,,,,,,,,,,,,,
44.2409731,12.0769134,,Point,node/1138002831,hospital,,,"Ospedale Privato ""Primus"", gruppo Villa Maria",,,,,,,,,,,,,,,,,,,,,,,,,,,,,,,,,,,,,,,,,,
44.3887423,11.8260368,,Point,node/1166552706,hospital,,,Poliambulatorio,,,,,,,,,,,,,,,,,,,,,,,,,,,,,,,,,,,,,,,,,,
41.9079112,15.3374535,,Point,node/1241563267,hospital,yes,,Pronto Soccorso Estivo,,,,,,,,,,,,,,,,,,,,,,,,,,,,,,,,,,,,,,,,,,
41.9080048,12.4490492,,Point,node/1273194519,hospital,yes,hospital,Pronto Soccorso Ospedale Oftalmico,,,,,Roma,23,00136,Via Vittor Pisani,,,,,,,,,,,,,,,,,,,,,,,,,,,,,,,,,,
40.473025,17.2478859,,Point,node/1376709969,hospital,no,,Ospedale Militare Marittimo,,,,,,,,,,,,,,,,,,,,,,,,,,,,,,,,,,,,,,,,,,
39.2955417,16.248184,,Point,node/1409086932,hospital,yes,,Pronto Soccorso,,,,,,,,,,,,,,,,,,,,,,,,,,,,,,,,,,,,,,,,,,
41.1344701,16.7642512,,Point,node/1412486593,hospital,,hospital,Ambulatorio Primo Soccorso - First Aid - Croce Rossa Italiana,,,,,,,,,,,,,,,,,,First Aid - Italian Red Cross,,,,,,,,,,,,,,,,,,,,,,,,
41.1362237,16.8410083,,Point,node/1433747566,hospital,no,,Ambulatorio medico - Croce Rossa Italiana,,,,,,,,,,,,,,,,,,,,,,,,,,,,,,,,,,,,,,,,,,
40.848373,14.4705152,,Point,node/1457151225,hospital,yes,,Casa di cura Trusso,,,,,,,,,,,,,,,,,,,,,,,,,,,,,,,,,,,,,,,,,,
40.8329738,14.4998189,,Point,node/1462176201,hospital,,,Clinica Santa Lucia,,,,,,,,,,,,,,,,,,,,,,,,,,,,,,,,,,,,,,,,,,
41.5001087,13.0625092,,Point,node/1468299924,hospital,,,,,,,,,,,,,,,,,,,,,,,,,,,,,,,,,,,,,,,,,,,,,
44.121404,9.9495802,,Point,node/1469458250,hospital,yes,hospital,,,,,,,,,,,,,,,,,,,,,,,,,,,,,,,,,,,,,,,,,,,
44.2251154,8.4155605,,Point,node/1485111639,hospital,,hospital,Croce Bianca Spotorno,,,,,Spotorno,,,Via Venezia,,,,,,,,,,,,,,,,,,,,,,,,,,,,,,,,,,
43.8671921,10.3414108,,Point,node/1549453127,hospital,yes,centre,Misericordia,,,,,,,,,,,,,,,,,,,,,,,,,,,,,,,,,,,,,,,,,,
39.0842738,17.1134307,,Point,node/1584061157,hospital,no,hospital,ASP,,,,,,,,,,,,,,,,,,,,,,,,,,,,,,,,,,,,,,,,,,
43.6028436,13.0566341,,Point,node/1604032038,hospital,,,,,,,,,,,,,,,,,,,,,,,,,,,,,,,,,,,,,,,,,,,,,
42.0958986,13.8715157,,Point,node/1604313268,hospital,,,Croce Verde,,,,,,,,,,,,,,,,,,,,,,,,,,,,,,,,,,,,,,,,,,
43.1416218,13.2228652,,Point,node/1613443811,hospital,no,,,,,,,,,,,,,,,,,,,,,,,,,,,,,,,,,,,,,,,,,,,,
40.0948555,15.4056887,,Point,node/1704258810,hospital,,,Guardia Medica,,,,,,,,,,,,,,,,,,,,,,,,,,,,,,,,,,,,,,,,,,
43.956301,12.1947926,,Point,node/1713423344,hospital,,hospital,Ospedale Capelli,,,,,,,,,,,,,,,,,,,,,,,,,,,,,,,,,,,,,,,,,,
42.9258686,16.8891889,,Point,node/1720825172,hospital,,,"GP Doctor, Stomatologist",,,,,,,,,,,,,,,,,,,,,,,,,,,,,,,,,,,,,,,,,,
42.7458734,11.8653758,,Point,node/1732954478,hospital,,,Ospedale Santa Maria della Scala,,,,,Acquapendente,68,01021,Via Cesare Battisti,,,,,,,,,,,IT,,,,,,,,,,,,,,,,,,,,,,,
41.0177389,13.9530254,,Point,node/1759748613,hospital,,,Clinica Pineta Grande,,,,,,,,,,,,,,,,,,,,,,,,,,,,,,,,,,,,,,,,,,
40.9095105,12.9565573,,Point,node/1798000412,hospital,,,,,,,,,,,,,,,,,,,,,,,,,,,,,,,,,,,,,,,,,,,,,
42.4604088,12.3843922,,Point,node/1818883486,hospital,,,Centro Salute Orte,,,,,,,,,,,,,,,,,,,,,,,,,,,,,,,,,,,,,,,,,,
43.4671201,13.5561048,,Point,node/1869640800,hospital,no,hospital,Ospedale di Comunità di Castelfidardo,,,,,,,,,,,,,,,,,,,,,,,,,,,,,,,,,,,,,,,,,,
42.9446959,17.5633867,,Point,node/1885046903,hospital,,,,,,,,,,,,,,,,,,,,,,,,,,,,,,,,,,,,,,,,,,,,,
43.8478754,10.6616526,,Point,node/1925413884,hospital,no,,Misericordia di Montecarlo,,,,,,,,,,,,,,,,,,,,,,,,,,,,,,,,,,,,,,,,,,
44.0592602,12.591387,,Point,node/1934414893,hospital,,hospital,Ospedale dei villeggianti,,,,,,,,,,,,,,,,,,,,,,,,,,,,,,,,,,,,,,,,,,
43.7867495,11.3980969,,Point,node/1938471753,hospital,,,Dentist,,,,,,,,,,,,,,,,,,,,,,,,,,,,,,,,,,,,,,,,,,
42.0504267,12.6214304,,Point,node/1983448219,hospital,,hospital,"Ospedale ""SS Gonfalone""",,,,,,,,,,,,,,,,,,,,,,,,,,,,,,,,,,,,,,,,,,
39.4123899,16.8291751,,Point,node/2056879089,hospital,,,,,,,,,,,,,,,,,,,,,,,,,,,,,,,,,,,,,,,,,,,,,
43.7749317,10.6005673,,Point,node/2068231105,hospital,no,,,,,,,,,,,,,,,,,,,,,,,,,,,,,,,,,,,,,,,,,,,,
40.6383861,14.6122789,,Point,node/2089784335,hospital,yes,hospital,Ospedale della costa,,,,,,,,,,,,,,,,,,,,Amalfi Coast Hospital,,,,,,,,,,,,,,,,,,,,,,
41.1200707,16.8687365,,Point,node/2124054724,hospital,,,First Aid - university,,,,,,,,,,,,,,,,,,,,,,,,,,,,,,,,,,,,,,,,,,
42.2500322,11.759316,,Point,node/2128115697,hospital,yes,,Ospedale,,,,,,,,,,,,,,,,,,,,,,,,,,,,,,,,,,,,,,,,,,
40.7423361,16.8217375,,Point,node/2137514980,hospital,,,Centro Nazionale Riabilitativo per Hanseniani,,,,,,,,,,,,,,,,,,,,,,,,,,,,,,,,,,,,,,,,,,
41.8316439,15.5765802,,Point,node/2156948851,hospital,,,a.s.l.fg,,,,,,,,,,,,,,,,,,,,,,,,,,,,,,,,,,,,,,,,,,
44.1895874,12.4094093,,Point,node/2163556775,hospital,yes,hospital,Ospedale di Cesenatico,,,,,,,,,,,,,,,,,,,,,,,,,,,,,,,,,,,,,,,,,,
43.8318202,11.2051424,,Point,node/2209929226,hospital,no,,Azienda Usl 10 Di Firenze,,,,,,,,,,,,,,,,,,,,,,,,,,,,,,,,,,,,,,,,,,
43.628026,11.4856143,,Point,node/2241546770,hospital,,,,,,,,,,,,,,,,,,,,,,,,,,,,,,,,,,,,,,,,,,,,,
40.2699374,15.6222271,,Point,node/2251338911,hospital,,,Guardia Medica,,,,,,,,,,,,,,,,,,,,,,,,,,,,,,,,,,,,,,,,,,
40.2935811,15.6500094,,Point,node/2251342126,hospital,yes,,Clinica Fischietti,,,,,,,,,,,,,,,,,,,,,,,,,,,,,,,,,,,,,,,,,,
43.7518079,11.1830881,,Point,node/2266774570,hospital,,hospital,Misericordia di Lastra a Signa sez. Scandicci,,,,,,,,,,,,,,,,,,,,,,,,,,,,,,,,,,,,,,,,,,
43.4797124,12.6926853,,Point,node/2268215239,hospital,,,Infermeria FISPS,,,,,,,,,,,,,,,,,,,,,,,,,,,,,,,,,,,,,,,,,,
39.4485466,16.2869891,,Point,node/2272013482,hospital,,,Poliambulatorio,,,,,,,,,,,,,,,,,,,,,,,,,,,,,,,,,,,,,,,,,,
41.5781266,15.1126501,,Point,node/2288509818,hospital,,,Clinica De Luca,,,,,,,,,,,,,,,,,,,,,,,,,,,,,,,,,,,,,,,,,,
41.712051,15.6410544,,Point,node/2293620765,hospital,,,Ospedale di San Marco in Lamis,,,,,,,,,,,,,,,,,,,,,,,,,,,,,,,,,,,,,,,,,,
40.8150572,14.3444962,,Point,node/2311452925,hospital,,,Guardia medica,,,,,,,,,,,,,,,,,,,,,,,,,,,,,,,,,,,,,,,,,,
43.7734383,10.7179363,,Point,node/2354813963,hospital,no,,Distretto socio-sanitario Galleno,,,,,,,,,,,,,,,,,,,,,,,,,,,,,,,,,,,,,,,,,,
40.900992,9.5471151,,Point,node/2357022152,hospital,,,Ospedale Mater Olbia,,,,,,,,,,,,,,Q94641366,,,,,,,hospital,,,,,,,,,,,,,,,,,,,,,
39.4914873,16.3893333,,Point,node/2358340869,hospital,yes,,Presidio ospedalaliere Beato Angelo,,,,,,,,,,,,,,,,,,,,,,,,,,,,,,,,,,,,,,,,,,
43.3347866,10.7442943,,Point,node/2360521272,hospital,no,hospital,Guardia Medica,,,,,,,,,,,,,,,,,,,,,,,,,,,,,,,,,,,,,,,,,,
40.8912006,16.9536636,,Point,node/2393726733,hospital,yes,,Guardia Medica,,yes,,,,,,Via Michelangelo Buonarroti,,,+39 080 8917330,,,,,,,,,,,,,,,,,,,,,,,,,,,,,,,
43.6754339,10.5480705,,Point,node/2430869207,hospital,no,hospital,Guardia Medica,,,,,Cascina,,56021,Via della Vittoria,,,,,,,,,,,,,,Pubblica Assistenza,,,,,,,,,,,,,,,,,,,,
41.7595966,12.7081994,,Point,node/2440169911,hospital,,,ASL,,,,,,,,,,,,,,,,,,,,,,,,,,,,,,,,,,,,,,,,,,
40.6305121,14.5402099,,Point,node/2452231029,hospital,,,Guardia Medica,,,,,,,,,,,,,,,,,,,,,,,,,,,,,,,,,,,,,,,,,,
40.5462671,17.436926,,Point,node/2454234307,hospital,no,hospital,ASL,,,,,,,,,,,,,,,,,,,,,,,,,,,,,,,,,,,,,,,,,,
40.4839217,9.4397632,,Point,node/2544242086,hospital,,,Ambulatorio Onanì,,,,,,,,,,,,,,,,,,,,,,,,,,,,,,,,,,,,,,,,,,
39.6845784,8.777039,,Point,node/2614920362,hospital,,,Guardia medica,,,,,,,,,,,,,,,,,,,,,,,,,,,,,,,,,,,,,,,,,,
43.7943077,10.268302,,Point,node/2634502193,hospital,,,Pronto Soccorso,,,,,,,,,,,,,,,,,,,,,,,,,,,,,,,,,,,,,,,,,,
42.5170644,12.5216236,,Point,node/2683339413,hospital,yes,,Presidio ospedaliero Narni,,,Azienda Unità Sanitaria Locale Umbria n. 2,,Narni,3,05035,Via dei Cappuccini Nuovi,,public,+39 0744 7401,http://www.uslumbria2.it/pagine/ospedale-di-narni-000,,,,,,,,,,,,,,,,,,,,,,,,,,,,,,
42.365135,13.725294,,Point,node/2725529566,hospital,yes,hospital,Ambulatorio Medico,,yes,,,Castel del Monte,1,67023,Via Gran Sasso,,,,,,,,,,,,,,,,,,,,,,,,,,,,,,,,,,
40.8602336,14.5274927,,Point,node/2778473426,hospital,,,Casa di cura La Madonnina,,,,,,,,,,,,,,,,,,,,,,,,,,,,,,,,,,,,,,,,,,
40.3179104,15.0609385,,Point,node/2806634148,hospital,no,hospital,Guardia Medica Torchiara,,,,,,,,,,,,,,,,,,,,,,,,,,,,,,,,,,,,,,,,,,
40.6343675,16.9344984,,Point,node/2808373547,hospital,yes,,Ospedale San Pio,,,,,Castellaneta,1,74011,Via Del Mercato,,,,,,,,,,,,,,,,,,,,,,,,,,,,,,,,,,
42.1450363,12.4936349,,Point,node/2819141133,hospital,no,,Croce Rossa Morlupo,,,,,Morlupo,,00067,Via Giuseppe di Vittorio,,,,,,,,,,,,,,,,,,,,,,,,,,,,,,,,,,
41.7325012,12.2707898,,Point,node/2824672193,hospital,,,Distretto di salute mentale A.S.L. Roma D,,,,,Roma,,00121,Via Adolfo Cozza,,,,,,,,,,,,,,,Distretto di salute mentale A.S.L. Roma D,BAG,,,,,,,,,,,,,,,,,,
41.2388648,9.1895936,,Point,node/2839889768,hospital,yes,,Guardia Medica,,,,,,,,,,,,,,,,,,,,,,,,,,,,,,,,,,,,,,,,,,
43.7517491,13.0950519,,Point,node/2872559641,hospital,no,,Ospedale Bartolini,,,,,,,,Piazza Bartolini,,,,,,,,,,,,,,,,,,,,,,,,,,,,,,,,,,
41.9333374,12.1269583,,Point,node/2936704791,hospital,,,POSTAZIONE 118,,,,,,,,,,,,,,,,,,,,,,,,,,,,,,,,,,,,,,,,,,
43.8151555,10.8948115,,Point,node/2940769836,hospital,yes,,Casa della Salute,,,,,,,,,,,,,,,,,,,,,,,,,,,,,,,,,,,,,,,,,,
41.8869941,14.0648765,,Point,node/2956884002,hospital,,,Guardia Medica,,,,,,,,,,,,,,,,,,,,,,,,,,,,,,,,,,,,,,,,,,
40.7902604,13.4184783,,Point,node/3059909761,hospital,,,Croce Rossa,,,,,,,,,,,,,,,,,,,,,,,,,,,,,,,,,,,,,,,,,,
43.4467888,13.1174991,,Point,node/3063336686,hospital,yes,,Ambulatori,,,,,,,,,,,,,,,,,,,,,,,,,,,,,,,,,,,,,,,,,,
44.4055317,9.2431181,,Point,node/3092330573,hospital,no,,Ospedaletto,,,"Azienda Sanitaria Locale 4 ""Chiavarese""",,,,,,,,,,,,,,,,,,,,,,,,,,,,,,,,,,,,,,,
39.9263311,8.5275371,,Point,node/3118753598,hospital,ambulance_station,,118,,,,,,,,,,,,,,,,,,,,,,,,,,,,,,,,,,,,,,,,,,
40.147868,16.2891252,,Point,node/3127463474,hospital,,hospital,ASL,,,,,,,,,,,,,,,,,,,,,,,,,,,,,,,,,,,,,,,,,,
40.8566761,15.859678,,Point,node/3213388604,hospital,yes,,Pronto Soccorso,,,,,,,,,,,,,,,,,,,,,,,,,,,,,,,,,,,,,,,,,,
41.5875208,12.6480248,,Point,node/3225215833,hospital,yes,,,,,,,,,,,,,,,,,,,,,,,,,,,,,,,,,,,,,,,,,,,,
43.6705787,12.5189021,,Point,node/3229583110,hospital,,,Distretto sanitario N° 2 di Urbania,,,,,Urbania,54,61049,Via Roma,,,,,,,,,,,,,,,,,,,,,,,,,,,,,,,,,,
40.8170747,16.4207353,,Point,node/3342451831,hospital,,,Pronto Soccorso,,,,,,,,,,,,,,,,,,,,,,,,,,,,,,,,,,,,,,,,,,
39.1566811,9.3996763,,Point,node/3350116131,hospital,yes,hospital,Guardia Medica,,,,,,,,,,,,,,,,Jun-Sep,,,,,,,Presidio estivo guardia medica.,,,,,,,,,,,,,,,,,,,
40.8169898,16.4209533,,Point,node/3354040309,hospital,,,Guardia Medica,,,,,,,,,,,,,,,,,,,,,,,,,,,,,,,,,,,,,,,,,,
40.5327462,15.3732292,,Point,node/3441511946,hospital,no,,Guardia medica,,,,,,,,,,,,,,,,,,,,,,,,,,,,,,,,,,,,,,,,,,
43.7041742,10.4420063,,Point,node/3512154941,hospital,yes,hospital,Pronto Soccorso,,,,,,,,,,,,,,,,,,,,,,,,,,,,,,,,,,,,,,,,,,
41.1183678,16.4847086,,Point,node/3536974724,hospital,,,Diagnostica s.r.l.,,,,,Ruvo di Puglia,10,70037,Via Pietro Gobetti,,,,,,,,,,,,,,,,,,,,,,,,,,,,,,,,,,
39.8450475,16.4550118,,Point,node/3623935700,hospital,,hospital,Farmacia Santa Lucia,,,,,Villapiana,1,87076,Via Marsala,,,,,,,,,,,,,,,,,,,,,,,,,,,,,,,,,,
39.3443572,16.1544632,,Point,node/3706948465,hospital,,,Casa di cura Villa Igea,,,,,,,,,,,,,,,,,,,,,,,,,,,,,,,,,,,,,,,,,,
40.6483516,15.8286253,,Point,node/3739240400,hospital,,,Croce Rossa Italiana,,,,,,,,,,,,,,,,,,,,,,,,,,,,,,,,,,,,,,,,,,
41.1923528,14.5483632,,Point,node/3762483426,hospital,,,Covermark Point camouflage,,,,,,,,,,,,,,,,,,,,,,,,,,,,,,,,,,,,,,,,,,
41.1946705,14.5507274,,Point,node/3766047157,hospital,,hospital,Guardia Medica,,,,,,,,,,,,,,,,,,,,,,,,,,,,,,,,,,,,,,,,,,
44.1406161,11.1556529,,Point,node/3801840737,hospital,yes,hospital,Casa di cura Prof. Nobili,,yes,Garofalo Healthcare,,Castiglione dei Pepoli,25,,Via Fiera,,,+39 0534 91099,https://casadicuranobili.it/,,,,,,,,,,,,,,,,,,,,,,,,,,,,,,
43.547653,12.650819,,Point,node/3887554332,hospital,yes,,"Ospedale Civile ""A. Celli""",,,,,,,,,,,,,,,,,,,,,,,,,,,,,,,,,,,,,,,,,,
40.6182355,16.1489476,,Point,node/3923334792,hospital,,,,,,,,,,,,,,,,,,,,,,,,,,,,,,,,,,,,,,,,,,,,,
42.1641094,12.8437782,,Point,node/3955223564,hospital,,,Farmacia,,,,,,,,,,,,,,,,,,,,,,,,,,,,,,,,,,,,,,,,,,
39.2216396,9.1126439,,Point,node/4071708527,hospital,,,Pronto Soccorso,,yes,,,,,,,,,,,,,Pronto Soccorso San Giovanni di Dio,,,,,,,,,,,,,,,,,,,,,,,,,,,
40.9736923,16.0842144,,Point,node/4102902608,hospital,,,,,,,,,,,,,,,,,,,,,,,,,,,,,,,,,,,,,,,,,,,,,
40.8688625,14.2462918,,Point,node/4174698337,hospital,,,Centro Traumatologico Ortopedico,,,,,,,,,,,,,,,,,,,,,,,,,,,,,,,,,,,,,,,,,,
40.8489388,14.2316169,,Point,node/4177163443,hospital,,,Ospedale Pediatrico Santobono-Pausillipon,,,,,,,,,,,,,,,,,,,,,,,,,,,,,,,,,,,,,,,,,,
44.1232892,9.9488003,,Point,node/4183805287,hospital,,,Centro Diurno di Sarzana,,,,,,,,Via 27 Gennaio,,,,,,,,,,,,,,,,,,,,,,,,,,,,,,,,,,
41.2629345,15.9111099,,Point,node/4213827415,hospital,,hospital,,,,,,,,,,,,,,,,,,,,,,,,FIXME: Clinica medica privata (convenzionata con SSN),,private,,,,,,,,,,,,,,,,,
40.7513567,14.6431407,,Point,node/4222251494,hospital,,,,,,,,,,,,,,,,,,,,,,,,,,,,,,,,,,,,,,,,,,,,,
40.7262738,17.5735023,,Point,node/4248302663,hospital,yes,hospital,,,,,,Ostuni,,72017,Via Villafranca,,,,,,,,,,,,,,,,,,,,,,,,,,,,,,,,,,
41.6946101,15.2922169,,Point,node/4248823743,hospital,,,ASL,,,,,,,,,,,,,,,,,,,,,,,,,,,,,,,,,,,,,,,,,,
41.6949996,15.2928588,,Point,node/4248823744,hospital,,,Pronto Soccorso,,,,,,,,,,,,,,,,,,,,,,,,,,,,,,,,,,,,,,,,,,
41.7855399,12.6717269,,Point,node/4258828508,hospital,,,Croce Rossa,,,,,,,,,,,,,,,,,,,,,,,,,,,,,,,,,,,,,,,,,,
40.4399926,9.7656823,,Point,node/4313374935,hospital,,,Guardia medica,,,,,,,,,,,+39 078491367,,,,,,,,,,,,Servizio a pagamento anche per i residenti. Visita ambulatoriale €16 Visita domiciliare €30 ,,,,,,,,,,,,,,,,,,,
41.6740971,13.4275585,,Point,node/4318561082,hospital,,,La Città Bianca,,,,,,,,,,,,,,,,,,,,,,,,,,,,,,,,,,,,,,,,,,
40.2490072,16.6997932,,Point,node/4341097299,hospital,yes,,Guardia Medica,,,,,Scanzano Jonico,,75020,Corso Alcide De Gasperi,,,+39 0835 953003,,,,,,,,,,,,,,,,,,,,,,,,,,,,,,,
42.6277677,13.2865189,,Point,node/4364996902,hospital,yes,hospital,Ospedale Grifoni,,,,,,,,,,,,,,,,,,,,,,,,,,,,,,,,,,,,,,,,,,
42.6256236,13.2929307,,Point,node/4365030552,hospital,,,"Centro di emergenza sanitaria ""campo sportivo A. Sbardella” """,,,Protezione civile,,,,,Strada Statale 260 Picente,,,,,,,,,,,,,,,,,,,,,,,,,,,,,,,,,,
40.3007499,8.4955406,,Point,node/4366635210,hospital,yes,,"Pronto Soccorso Ospedale ""A.G. Mastino""",,,,,Bosa,,08013,,,,,,,,,,,,,,,,,,,,,,,,,,,,,,,,,,,
41.8021119,12.4479814,,Point,node/4370802641,hospital,,hospital,Istituti Fisioterapici Ospedalieri,,,,,Roma,53,00144,Via Elio Chianesi,,,,,,,,Mo-Su 06:15-21:00,,,,,,,,,,,,,,,,,,,,,,,,,,
41.1835536,16.6804357,,Point,node/4404469764,hospital,,hospital,Pronto Soccorso,,,,,,,,,,,,,,,,,,,,,,,,,,,,,,,,,,,,,,,,,,
41.8781305,14.2948523,,Point,node/4445282819,hospital,,,Farmacia - Ambulatorio Medico,,,,,,,,,,,,,,,,,,,,,,,,,,,,,,,,,,,,,,,,,,
44.0502748,10.0584303,,Point,node/4463224991,hospital,,hospital,Distretto Avenza ASL Nord-Ovest,,,,,Carrara,28,54033,Via Giovan Pietro,,,,,,,Distretto Avenza ASL Nord-Ovest,,,,IT,,,,,,,Massa-Carrara,2680,,,,,,,,,,,,,,,
42.0371774,12.6338272,,Point,node/4482522397,hospital,,,Casa Di Cura Villa Tiberia,,,,,,,,Via Emilio Praga,,,,,,,,,,,,,,,,,,,,,,,,,,,,,,,,,,
43.890436,12.2872142,,Point,node/4509379816,hospital,,hospital,"Ospedale ""Sacra Famiglia""",,,ASL Romagna,,Novafeltria,174,47863,Via 24 maggio,,public,,,,,,,,,,,,,,,,,,,,,,,,,,,,,,,,
44.334083,11.1870302,,Point,node/4524302246,hospital,,,Corpo Nazionale Soccorso Alpino e Speleologico,,,,,,,,,,,,,,,,,,,,,,,,,,,,,,,,,,,,,,,,,,
44.3299711,11.4079657,,Point,node/4524880727,hospital,,,Pubblica Assistenza Monterenzio,,,,,,,,,,,,,,,,,,,,,,,,,,,,,,,,,,,,,,,,,,
44.3170377,11.2554085,,Point,node/4530729518,hospital,,,Pubblica Assistenza Vado,,,,,,38/B,40036,Via Val di Setta,,,+39 0516779812,http://www.pavado.it,,,,,,,,,,,,,,,,info@pavado.it,,,,,,,,,,,,,,
40.4739042,17.2452949,,Point,node/4604739817,hospital,no,,Azienda Sanitaria Locale TA/1,,yes,Azienda Sanitaria Locale,,Taranto,2,74123,Via Vincenzo Pupino,,government,+39 099 4585078,https://www.sanita.puglia.it/web/asl-taranto,,,,,,,,,,,,,,,,,,,,,,,,,,,,,,
43.8113399,10.6666763,,Point,node/4609557730,hospital,,,Veterinaio Zoofollia,,,,,,,,,,,,,,,,,,,,,,,,,,,,,,,,,,,,,,,,,,
41.6758691,13.5768035,,Point,node/4681910367,hospital,,,Casa Di Cura Santa Maria Teresa,,,,,,23,,Via Nazionale,,,+39 0776 80291,casadicurasteresa.com,,,,,,,,,,,,,,,,,,,,,,,,,,,,,,
40.8325766,17.3566113,,Point,node/4693376130,hospital,yes,,Pronto Soccorso,,,,,,,,,,,,,,,,,,,,,,,,,,,,,,,,,,,,,,,,,,
40.8521929,17.1183106,,Point,node/4701735390,hospital,,hospital,Ospedale Santa Maria Degli Angeli,,,,,,,,,,,,,,,,,,,,,,,,,,,,,,,,,,,,,,,,,,
44.1561822,11.7950109,,Point,node/4774382536,hospital,,hospital,CRA Madonna del Cantone,,,,,Modigliana,25,,Via Nicolò Ronconi,,,,,,,,,,,,,,,,,,,,,,,,,,,,,,,,,,
44.1578328,11.7893927,,Point,node/4774384504,hospital,,hospital,Casa di Riposo Quisisana,,,,,Modigliana,25,,Via del Seminario,,,,,,,,,,,,,,,,,,,,,,,,,,,,,,,,,,
44.156335,11.7954152,,Point,node/4774385560,hospital,,hospital,Casa della Salute Modigliana,,,,,Modigliana,31,,Via Canaletto,,,,,,,,,,,,,,,,,,,,,,,,,,,,,,,,,,
44.3937002,11.3446056,,Point,node/4781382048,hospital,,hospital,Pubblica Assistenza Pianoro,,,,,Pianoro,15,,Via del Lavoro,,,,,,,,,,,,,,,,,,,,,,,,,,,,,,,,,,
41.8581846,12.6303302,,Point,node/4839842653,hospital,yes,,Pronto Soccorso Policlinico Tor Vergata,,,,,Roma,81,,Viale Oxford,,,,,,,,,,,,,,,,,,,,,,,,,,,,,,,,,,
43.8011357,11.2485654,,Point,node/4843432276,hospital,,hospital,Centro traumatologico ortopedico - CTO,,,,,Firenze,1,50139,Largo Palagi,,,,,,,,,,,,,,,,,,,,,,,,,,,,,,,,,,
43.8108032,11.2528217,,Point,node/4843432277,hospital,,hospital,Ospedale pedriatrico Meyer,,,,,Firenze,24,50139,Viale Gaetano Pieraccini,,,,,,,,,,,,,,,,,,,,,,,,,,,,,,,,,,
43.3863113,17.2437108,,Point,node/4848159970,hospital,,hospital,Ambulance,,,,,,,,,,,,,,,,,,,,,,,,,,,,,,,,,,,,,,,,,,
40.7497699,14.0130908,,Point,node/4927419576,hospital,,hospital,Ospedale Civile Gaetanina Scotto,,,ASL Napoli 2 Nord,,,,,,,public,,,,,,,,,,,,,,,,,,,,,,,,,,,,,,,,
41.9329767,13.4091215,,Point,node/4986730487,hospital,,,Istituto Neurotraumatologico Italiano,,,,,,,,,,,,,,,,,,,,,,,,,,,,,neurotraumatology,,,,,,,,,,,,,
43.3600798,11.3128226,,Point,node/4999280621,hospital,no,hospital,Rugani Hospital,,,,,,,,Via Chiantigiana,,,+39 0577 578311,,,,,,,,,,,,,,,,,,radiology,,,,,,,,,,,,,
43.9178438,10.903596,,Point,node/5043059175,hospital,yes,hospital,Pronto Soccorso Ospedale San Jacopo,,,,,Pistoia,120,51100,Via Ciliegiole,,,,,,,,,,,,,,,,,,,,,,,,,,,,,,,,,,
44.0563972,10.7883885,,Point,node/5043072468,hospital,yes,,Punto di primo soccorso di San Marcello,,,,,San Marcello Pistoiese,76,51028,Via Massimo D'Azeglio,,,,,,,,,,,,,,,,,,,,,,,,,,,,,,,,,,
43.1662514,11.7712927,,Point,node/5061901315,hospital,no,,Consultorio Antares,,,,,Torrita di Siena,4,53049,Via Ottavio Maestri,,,,,,,,,,,,,,,,,,,,,,,,,,,,,,,,,,
40.4595815,17.2502117,,Point,node/5132434504,hospital,no,,Servizi d'igiene e sanità pubblica,,yes,ASL Taranto,,Taranto,104,74121,Viale Virgilio,,,+39 099 7786458,https://www.sanita.puglia.it/documents/36057/9494022/RINNOVO+patenti+A-B.pdf/594e1077-dee0-41fd-9414-0a08fa845035,,,,,,,,,,,,,,,,,,,,,,,,,,,,,,
39.0641104,17.1172608,,Point,node/5161544195,hospital,no,hospital,ASL,,,,,,,,,,,,,,,,,,,,,,,,,,,,,,,,,,,,,,,,,,
39.1390101,9.5230498,,Point,node/5188600583,hospital,,hospital,Dott.ssa Andreina Mureddu,,,,,Villasimius,36,09049,Via Giuseppe Mazzini,,,,,,,,,,Medico di famiglia,,,,,Medico di famiglia,,,,,,general,,,,,,,,,,,,,
43.4643888,11.8787911,,Point,node/5189158708,hospital,yes,,Arciconfraternita della Misercordia di Arezzo,,yes,,,Arezzo,143,52100,Via Giuseppe Garibaldi,+39057521484,,+39057524242,www.misericordiaarezzo.com,,,,,,,,,,,,,,,,,,,,,,,,,,,,,,
41.6327146,15.9194714,,Point,node/5207169978,hospital,yes,hospital,Pronto Soccordo Ospedale San Camillo De Lellis,,,,,Manfredonia,,71043,Via Isonzo,,,,,,,,,,,,,,,,,,,,,,,,,,,,,,,,,,
41.5135377,15.3310829,,Point,node/5207175034,hospital,yes,hospital,Pronto Soccorso Ospedale Francesco Lastaria,,,,,Lucera,,,Viale Francesco Lastrasia,,,,,,,,,,,,,,,,,,,,,,,,,,,,,,,,,,
41.1175263,16.7808797,,Point,node/5207216511,hospital,yes,hospital,Pronto Soccorso Ospedale San Paolo,,,,,Bari,,,Strada Capo Scardicchio,,,,,,,,,,,,,,,,,,,,,,,,,,,,,,,,,,
41.0760728,16.8630311,,Point,node/5209047477,hospital,yes,hospital,Pronto Soccorso Ospedale Di Venere,,,,,Bari,,,Via Ospedale di Venere,,,,,,,,,,,,,,,,,,,,,,,,,,,,,,,,,,
41.0992406,16.887796,,Point,node/5209067200,hospital,yes,hospital,Pronto Soccorso Ospedale Pediatrico Giovanni XXIII,,,,,Bari,,,Via Giovanni Amendola,,,,,,,,,,,,,,,,,,,,,,,,,,,,,,,,,,
41.0672134,16.9266477,,Point,node/5209071681,hospital,yes,hospital,"Pronto Soccorso Ospedale ""Francesca Fallacara""",,,,,Triggiano,,,Viale Aldo Moro,,,,,,,,,,,,,,,,,,,,,,,,,,,,,,,,,,
41.1918528,16.5911565,,Point,node/5209083394,hospital,yes,hospital,Pronto Soccorso Ospedale Don Tonino Bello,,,,,Molfetta,,,Via Terlizzi,,,,,,,,,,,,,,,,,,,,,,,,,,,,,,,,,,
41.1466885,16.4237894,,Point,node/5209092969,hospital,yes,hospital,Pronto Soccorso Ospedale Umberto I,,,,,Corato,,,Via Ruvo,,,,,,,,,,,,,,,,,,,,,,,,,,,,,,,,,,
40.8522195,17.1184099,,Point,node/5209102957,hospital,yes,hospital,Pronto Soccorso Ospedale S. M. Angeli,,,,,Putignano,,70017,Piazza Padre Pio,,,,,,,,,,,,,,,,,,,,,,,,,,,,,,,,,,
40.9491684,17.2969903,,Point,node/5209111459,hospital,yes,hospital,Pronto Soccorso Ospedale San Giacomo,,,,,Monopoli,,,Via Guglielmo Oberdan,,,,,,,,,,,,,,,,,,,,,,,,,,,,,,,,,,
40.819665,16.4702325,,Point,node/5209116084,hospital,yes,hospital,Pronto Soccorso Ospedale della Murgia,,,,,Altamura,,70022,,,,,,,,,,,,,,,,,,,,,,,,,,,,,,,,,,,
40.4026908,17.6398837,,Point,node/5218707677,hospital,yes,hospital,Pronto Soccorso Presidio Ospedaliero Giannuzzi,,,,,Manduria,,74024,Via Mandonion,,,+39 099 800111,,,,,,,,,,,,,,,,,,,,,,,,,,,,,,,
40.5395131,17.5778741,,Point,node/5218732653,hospital,yes,hospital,Pronto Soccorso Ospedale Francavilla Fontana,,yes,,,Francavilla Fontana,,,,,,,,,,,,,,,,,,,,,,,,,,,,,,,,,,,,,
41.3143431,16.2537847,,Point,node/5218755171,hospital,yes,hospital,Pronto Soccorso Ospedale Monsignor Dimiccoli,,,,,Barletta,,,,,,,,,,,,,,,,,,,,,,,,,,,,,,,,,,,,,
41.2671363,16.4293603,,Point,node/5218757255,hospital,yes,hospital,Pronto Soccorso Ospedale San Nicola Pellegrino,,,,,Trani,,,,,,,,,,,,,,,,,,,,,,,,,,,,,,,,,,,,,
41.2295964,16.3037203,,Point,node/5218770316,hospital,yes,hospital,Pronto Soccorso Ospedale Lorenzo Bonomo,,,,,Andria,,,,,,,,,,,,,,,,,,,,,,,,,,,,,,,,,,,,,
41.2257805,16.0722325,,Point,node/5218797821,hospital,yes,hospital,"Pronto Soccorso Ospedale ""Caduti in Guerra""",,,,,Canosa di Puglia,,,,,,,,,,,,,,,,,,,,,,,,,,,,,,,,,,,,,
41.9322074,13.0862927,,Point,node/5220316843,hospital,yes,hospital,"Pronto Soccorso Ospedale ""Arnaldo Angelucci""",,,,,Subiaco,,,,,,,,,,,,,,,,,,,,,,,,,,,,,,,,,,,,,
41.2989468,13.2321477,,Point,node/5220323072,hospital,yes,hospital,"Pronto Soccorso Ospedale ""Alfredo Fiorini""",,,,,Terracina,,,,,,,,,,,,,,,,,,,,,,,,,,,,,,,,,,,,,
41.9181286,12.4206845,,Point,node/5220418538,hospital,yes,hospital,"Pronto Soccorso Ospedale ""Cristo Re""",,,,,Roma,25,00167,Via delle Calasanziane,,,,,,,,,,,,,,,,,,,,,,,,,,,,,,,,,,
41.6384261,13.3261536,,Point,node/5220458168,hospital,yes,hospital,Pronto Soccorso Ospedale Spaziani,,,,,Frosinone,,,,,,,,,,,,,,,,,,,,,,,,,,,,,,,,,,,,,
41.7291983,12.2992769,,Point,node/5220461914,hospital,yes,hospital,"Pronto Soccorso Ospadale ""Giovanni Battista Grassi""",,,,,Roma,28,00122,Via Giancarlo Passeroni,,,,,,,,,,,,,,,,,,,,,,,,,,,,,,,,,,
41.7281693,13.0040687,,Point,node/5220467459,hospital,,hospital,"Pronto Soccorso Ospedale ""Leopoldo Parodi Delfino""",,,,,Colleferro,,00034,,,,,,,,,,,,,,,,,,,,,,,,,,,,,,,,,,,
42.7459289,11.8648716,,Point,node/5220500591,hospital,yes,hospital,"Pronto Soccorso Ospedale ""Santa Maria della Scala""",,,,,Acquapendente,,01021,Via Cantorrivo,,,,,,,,,,,,,,,,,,,,,,,,,,,,,,,,,,
41.4607863,12.6365331,,Point,node/5222044331,hospital,yes,hospital,Pronto Soccorso Ospedali Riuniti di Anzio e Nettuno,,,,,Anzio,,00042,Via Cupa dei Marmi,,,,,,,,,,,,,,,,,,,,,,,,,,,,,,,,,,
41.6874536,12.7813834,,Point,node/5222054819,hospital,yes,hospital,"Pronto Soccorso Ospedale Civile ""Paolo Colombo""",,,,,Velletri,,00049,Via Orti Ginnetti,,,,,,,,,,,,,,,,,,,,,,,,,,,,,,,,,,
41.737609,13.3344057,,Point,node/5222094765,hospital,yes,hospital,"Pronto Soccorso Ospedale ""San Benedetto""",,,,,Alatri,,,,,,,,,,,,,,,,,,,,,,,,,,,,,,,,,,,,,
42.4223755,12.9067663,,Point,node/5222098564,hospital,yes,hospital,"Pronto Soccorso Ospedale ""Camillo de Lellis""",,,,,Rieti,,,,,,,,,,,,,,,,,,,,,,,,,,,,,,,,,,,,,
41.8907915,12.4769458,,Point,node/5222142783,hospital,yes,hospital,"Pronto Soccorso Ospedale ""San Giovanni Calibita""",,yes,,,Roma,,00186,,,,,,,,,,,,,,,,,,,,,,,,,,,,,,,,,,,
41.9603697,12.802126,,Point,node/5222162715,hospital,yes,hospital,"Pronto Soccorso Ospedale ""San Giovanni Evangelista""",,,,,Tivoli,,00019,,,,,,,,,,,,,,,,,,,,,,,,,,,,,,,,,,,
39.3086201,16.2530274,,Point,node/5222205762,hospital,,hospital,Biocontrol,,,,,,,,,,,,,,,,,,,,,,,,,,,,,,,,,,,,,,,,,,
41.8089998,12.6756557,,Point,node/5222217897,hospital,,hospital,"Pronto Soccorso Ospedale ""San Sebastiano""",,,,,Frascati,,00044,,,,,,,,,,,,,,,,,,,,,,,yes,,,,,,,,,,,,
41.4618111,12.9090106,,Point,node/5222250823,hospital,yes,hospital,"Pronto Soccorso Ospedale ""Santa Maria Goretti""",,,,,Latina,,04100,,,,,,,,,,,,,,,,,,,,,,,,,,,,,,,,,,,
42.0504488,12.6210631,,Point,node/5222275839,hospital,yes,hospital,Pronto Soccorso Ospedale,,,,,Monterotondo,,,,,,,,,,,,,,,,,,,,,,,,,,,,,,,,,,,,,
41.9006565,12.4625854,,Point,node/5222287585,hospital,yes,hospital,"Pronto Soccorso Ospedale ""Santo Spirito in Sassia""",,,,,Roma,,,Lungotevere in Sassia,,,,,,,,,,,,,,,,,,,,,,,,,,,,,,,,,,
44.1632608,10.9703029,,Point,node/5235383244,hospital,yes,hospital,Pronto Soccorso Ospedale Costa,,,,,Porretta Terme,,,,,,,,,,,,,,,,,,,,,,,,,,,,,,,,,,,,,
44.2816012,11.1084941,,Point,node/5235415923,hospital,yes,hospital,Pronto Soccorso Ospedale Vergato,,,,,Vergato,,,,,,,,,,,,,,,,,,,,,,,,,,,,,,,,,,,,,
43.342368,11.3307189,,Point,node/5241689341,hospital,yes,hospital,"Pronto Soccorso Policlinico ""Santa Maria alle Scotte""",,,,,Siena,,,,,,,,,,,,,,,,,,,,,,,,,,,,,,,,,,,,,
43.7215308,10.9350125,,Point,node/5241706926,hospital,yes,hospital,"Pronto Soccorso Ospedale ""San Giuseppe""",,,,,Empoli,,50053,Viale Giovanni Boccaccio,,,,,,,,,,,,,,,,,,,,,,,,,,,,,,,,,,
40.5806732,9.0012982,,Point,node/5241773442,hospital,yes,hospital,"Pronto Soccorso Ospedale ""Antonio Segni""",,,,,Ozieri,,,,,,,,,,,,,,,,,,,,,,,,,,,,,,,,,,,,,
40.8968583,9.1027289,,Point,node/5241780481,hospital,yes,hospital,"Pronto Soccorso Ospedale ""Paolo Dettori""",,,,,Tempio Pausania,,07029,,,,,,,,,,,,,,,,,,,,,,,,,,,,,,,,,,,
41.2174253,9.4070346,,Point,node/5241787111,hospital,yes,hospital,"Pronto Soccorso Ospedale ""Paolo Merlo""",,,,,La Maddalena,,,,,,,,,,,,,,,,,,,,,,,,,,,,,,,,,,,,,
40.3244306,9.3158377,,Point,node/5241802772,hospital,yes,hospital,"Pronto Soccorso Ospedale ""San Francesco""",,,,,Nuoro,,,,,,,,,,,,,,,,,,,,,,,,,,,,,,,,,,,,,
40.021342,9.0993522,,Point,node/5241807735,hospital,yes,hospital,"Pronto Soccorso Ospedale ""San Camillo""",,,,,Sorgono,,,,,,,,,,,,,,,,,,,,,,,,,,,,,,,,,,,,,
39.8773179,9.5487503,,Point,node/5241825934,hospital,yes,hospital,,,,"Pronto Soccorso Ospedale ""Nostra Signora della Mercede""",,Lanusei,,,,,,,,,,,,,,,,,,,,,,,,,,,,,,,,,,,,,
39.8985053,8.5845613,,Point,node/5244721499,hospital,yes,hospital,"Pronto Soccorso Ospedale ""San Martino""",,,,,Oristano,1a,09170,Viale Fondazione Rockefeller,,,,,,,,,,,,,,,,,,,,,,,,,,,,,,,,,,
40.1206415,8.8349166,,Point,node/5244739904,hospital,yes,hospital,"Pronto Soccorso Ospedale ""G.P. Delogu""",,,,,Ilartzi/Ghilarza,,,,,,,,,,,,,,,,,,,,,,,,,,,,,,,,,,,,,
39.5577695,8.7938478,,Point,node/5244748721,hospital,yes,hospital,"Pronto Soccorso Ospedale ""Nostra Signora di Bonaria""",,,,,San Gavino Monreale,,,,,,,,,,,,,,,,,,,,,,,,,,,,,,,,,,,,,
39.1849387,8.5073124,,Point,node/5244752939,hospital,yes,hospital,Pronto Soccorso Ospedale Sirai,,yes,,,Carbonia,,09013,,,,,,,,,,,,,,,,,,,,,,,,,,,,,,,,,,,
39.3104826,8.5243461,,Point,node/5244767321,hospital,yes,hospital,Pronto Soccorso Ospedale C.T.O,,,,,Iglesias,,,,,,,,,,,,,,,,,,,,,,,,,,,,,,,,,,,,,
39.213699,9.1745657,,Point,node/5244774601,hospital,yes,hospital,Pronto Soccorso Ospedale Marino,yes,yes,,,Cagliari,,,,,,,,,,,,,,,,,,,,,,,,,,,,,,,,,,,,,
39.7425102,9.1095079,,Point,node/5244784884,hospital,yes,hospital,"Pronto Soccorso Ospedale ""San Giuseppe""",,,,,Isili,,,,,,,,,,,,,,,,,,,,,,,,,,,,,,,,,,,,,
39.420791,9.5697872,,Point,node/5244787938,hospital,yes,hospital,"Pronto Soccorso Ospedale ""San Marcellino""",,,,,Muravera,,09043,,,,,,,,,,,,,,,,,,,,,,,,,,,,,,,,,,,
39.2487857,9.1076515,,Point,node/5244797274,hospital,yes,hospital,Pronto Soccorso,,,,,Cagliari,,09121,,,,,,,,,,,,,,,,,,,,,,,,,,,,,,,,,,,
39.2717348,9.126378,,Point,node/5244810613,hospital,yes,hospital,Pronto Soccorso,,,,,Monserrato,,,,,,,,,,,,,,,,,,,,,,,,,,,,,,,,,,,,,
43.8911145,11.0636741,,Point,node/5252839569,hospital,yes,hospital,"Pronto Soccorso Ospedale ""Santo Stefano""",,,,,Prato,,59100,,,,,,,,,,,,,,,,,,,,,,,,,,,,,,,,,,,
41.0862114,14.3352137,,Point,node/5254646845,hospital,yes,hospital,"Pronto Soccorso Ospedale ""Sant'Anna e San Sebastiano""",,,,,Caserta,,81100,,,,,,,,,,,,,,,,,,,,,,,,,,,,,,,,,,,
44.111766,9.8308496,,Point,node/5254658095,hospital,yes,hospital,Pronto Soccorso di La Spezia,,,,,La Spezia,1,19121,Via Mario Asso,,,,,,,,,,,,,,,,,,,,,general,,,,,,,,,,,,,
44.1213695,9.9497734,,Point,node/5254672732,hospital,yes,hospital,"Pronto Soccorso Ospedale ""San Bartolomeo""",,,,,Sarzana,,,,,,,,,,,,,,,,,,,,,,,,,,,,,,,,,,,,,
43.8100565,11.252419,,Point,node/5254686629,hospital,yes,hospital,Pronto Soccorso Ospedale Meyer,,,,,Firenze,,50139,,,,,,,,,,,,,,,,,,,,,,,,,,,,,,,,,,,
44.0200117,10.0993508,,Point,node/5327601089,hospital,yes,,Pronto Soccorso,,,,,,,,,,,,,,,,,,,,,,,,,,,,,,,,,,,,,,,,,,
41.8662194,12.5407757,,Point,node/5372896622,hospital,,hospital,NCL,,,,,,,,,,,,http://www.nclroma.it,,,,,,,,Neurological Center of Latium,,,,,,,,,,,,,,,,,,,,,,
44.0116067,10.0990744,,Point,node/5390436739,hospital,,hospital,ASL n. 1,,,ASL,,,40,,Viale delle Pinete,,,,,,,,,Q3631467,,,,,,,,,,,sportelliapuane@uslnordovest.toscana.it,,,,,,,,,,,,,,
41.6893657,15.3837803,,Point,node/5393867911,hospital,,hospital,Ortopedia D'Avena,,,,,,,,,,,,,,,,,,Titolare Cristina D'Avena,,,,,,,,,,,,,,,,,,,,,,,,
41.6904206,15.3865688,,Point,node/5393868658,hospital,,hospital,Pronto Soccorso,,,,,,,,,,,,,,,,,,,,,,,,,,,,,,,,,,,,,,,,,,
41.9086684,12.5124122,,Point,node/5410476365,hospital,,hospital,"Casa di Cura ""San Domenico""",,,,,,5,,Piazza Sassari,,,,sandomeniconline.it,,,,,,,,,,,,,,,,,,,,,,,,,,,,,,
39.009464,16.728881,,Point,node/5424016554,hospital,,hospital,asl,,,,,,,,,,,,,,,,,,,,,,,,,,,,,,,,,,,,,,,,,,
40.633647,15.787191,,Point,node/5425203566,hospital,no,hospital,Polo Sanitario 'Madre Teresa di Calcutta',,,ASP,,Potenza,100,85100,Via del Gallitello,,,+39 0971 310111,,,,,,,,,,,,,,,,,http://www.aspbasilicata.it/servizi/potenza-polo-sanitario-madre-teresa-di-calcutta,,,,,,,,,,,,,,
39.8974668,8.5849558,,Point,node/5440288696,hospital,,,Reparto Medicina,,,,,Oristano,1a,09170,Viale Fondazione Rockefeller,,,,,,,,,,,,,,,,,,,,,internal,,,,,,,,,,,,,
39.8984587,8.5849471,,Point,node/5440288698,hospital,,laboratory,Reparto Radiologia,,,,,Oristano,1a,09170,Viale Fondazione Rockefeller,,,,,,,,,,,,,,,,,,,,,diagnostic_radiology,,,,,,,,,,,,,
40.3959842,15.5968447,,Point,node/5491959212,hospital,,hospital,Clinica Veterinaria,,,,,,,,,,,,,,,,,,,,,,,,,,,,,,,,,,,,,,,,,,
43.3105477,10.5358947,,Point,node/5503511169,hospital,,hospital,Centro Medico Salus,,,Salus Toscana,,Cecina,5,57023,Via Palmiro Togliatti,,,+39 0586 630142,,,,,,,,,,,,,,,,,info@salustoscana.com,cardiology;general;orthopaedics;ophthalmology;gynaecology;otolaryngology;dermatology;psychiatry;urology;radiology;osteopathy;neurology;acupuncture;orthodontics;naturopathy;plastic_surgery;surgery,,,,,,,,,,,,,
39.6982346,9.5779443,,Point,node/5514317697,hospital,,hospital,,,,,,,,,,,,,,,,,,,,,,,,,,,,,,,,,,,,,,,,,,,
41.672162,12.4962357,,Point,node/5611897722,hospital,,hospital,Casa di cura Sant'Anna,,,,,,,,,,,,,,,,,,,,,,,,,,,,,,,,,,,,,,,,,,
43.2120748,11.760594,,Point,node/5651743060,hospital,,hospital,Misericordia di Sinalunga,,,,,Sinalunga,115,,Via Voltella,,,+39 0577 630367,http://www.misericordiasinalunga.it/it/index.html,,,,,,,,,,,,,,,,misericordia@misericordiasinalunga.it,,,,,,,,,,,,,,
40.0696881,15.6178171,,Point,node/5696293839,hospital,yes,hospital,Presidio Ospedaliero dell'Immacolata,,,,,Sapri,,84073,,,,,,,,,,,,,,,,,,,,,,general,,,,,,,,,,,,,
40.477916,15.1157929,,Point,node/5782129308,hospital,,hospital,Guardia Medica di Albanella,,,,,Albanella,116,84044,Via Roma,,,,,,,,,,Punto importante donde puede pedir consejo médico,,,,,,,,,,,general,,,,,,,,,,,,,
41.4698976,15.5394218,,Point,node/5784845069,hospital,,hospital,Dipartimento Dipendenze Patologiche,,,ASL,,Foggia,54,71121,Via San Severo,,,,,,,,,,,,,,,,,,,,,,,,,,,,,,,,,,
44.2997672,15.0848307,,Point,node/5806315677,hospital,,,,,,,,,,,,,,,,,,,,,,,,,,,,,,,,,,,,,,,,,,,,,
39.1739154,16.3152956,,Point,node/5830601009,hospital,,hospital,Ospedale,,,,,,,,,,,,,,,,,,,,,,,,,,,,,,,,,,,,,,,,,,
41.8637689,12.5850644,,Point,node/5922649665,hospital,,hospital,Casa di riposo Bruno Buozzi,,,,,,,,,,,,,,,,,,,,,,,,,,,,,,,,,,,,,,,,,,
43.8631365,11.0826407,,Point,node/6183525079,hospital,no,,Studi medici di famiglia,,,,,,,,,,,,,,,,,,,,,,,,,,,,,,,,,,,,,,,,,,
43.8629589,11.0824507,,Point,node/6183525080,hospital,,,Studi medici Pediatri,,,,,,,,,,,,,,,,,,,,,,,,,,,,,,,,,,,,,,,,,,
41.9017366,12.4396529,,Point,node/6221919884,hospital,,hospital,AISPS Roma - Centro di Sessuologia,,,,,Roma,330,00167,Via Baldo degli Ubaldi,,,,,,,,,,,,,,,,,,,,,,,,,,,,,,,,,,
39.4639342,8.7465259,,Point,node/6256392520,hospital,,hospital,AVIS,,,,,Villacidro,,09039,Via Guido Rossa,,,,,,,,,,,,,,,,,,,,,,,blood_donation,,,,,,,,,,,
39.4639988,8.7465555,,Point,node/6256434350,hospital,,hospital,ADMO,,,,,Villacidro,,09039,Via Guido Rossa,,,,,,,,,,,,,,,,,,,,,,,,,,,,,,,,,,
43.8201532,11.1428583,,Point,node/6276261814,hospital,no,hospital,Azienda USL Toscana centro - distretto Campi Bisenzio,,,,,Campi Bisenzio,1,50013,Via Gioacchino Rossini,,,+39 055 693 0880,https://www.uslcentro.toscana.it/,,,,,,,,,,,,,,,,,,,,,,,,,,,,,,
43.8005862,11.2497385,,Point,node/6533530319,hospital,no,hospital,Unità spinale,,,,,,1,,Largo Palagi,,,,,,,,,,,,,,,,,,,,,,,,,,,,,,,,,,
44.3295657,8.5070521,,Point,node/6561216756,hospital,,hospital,Croce d'Oro Albissola,,,,,Albissola Marina,1,,Via Arrigo Boito,,,,,,,,,,,,,,,,,,,,,,,,,,,,,,,,,,
44.332362,8.510665,,Point,node/6564744964,hospital,,hospital,Croce Verde Albisola,,,,,Albisola Superiore,79,,Via dei Conradi,,,,,,,,,,,,,,,,,,,,,,,,,,,,,,,,,,
40.4930955,15.4148184,,Point,node/6789877585,hospital,,hospital,Pietra del Sole,,,,,,,,,,,,,,,,,,,,,,,,,,,,,,,,,,,,,,,,,,
39.3987597,8.4003816,,Point,node/6825823086,hospital,,hospital,Croce Azzurra,,,,,,,,,,,,,,,,,,,,,,,,,,,,,,,,,,,,,,,,,,
41.3617406,13.4154706,,Point,node/6854985191,hospital,yes,hospital,"Pronto Soccorso Ospedale ""San Giovanni di Dio""",,,,,Fondi,,,,,,,,,,,,,,,,,,,,,,,,,,,,,,,,,,,,,
43.0793338,12.3551991,,Point,node/6872971100,hospital,yes,hospital,Santa Maria della Misericordia,,,Azienda Ospedaliera di Perugia,,Perugia,,06156,,+39 075 5783531,public,+39 075 5781,https://www.ospedale.perugia.it/,,,,,,,,,,,,,,,,ufficio.informazioni@ospedale.perugia.it,,,,Località Sant'Andrea delle Fratte,Silvestrini,,,,,,,,,
43.4744016,12.2534117,,Point,node/6872971101,hospital,yes,hospital,Ospedale di Città di Castello,,,Azienda Unità Sanitaria Locale Umbria n. 1,,Città di Castello,10,06012,Via Luigi Angelini,,public,+39 075 575981,http://www.uslumbria1.gov.it/pagine/ospedale-citta-di-castello,,Q61932601,,,,,,,,,,,,,,,,,,,,no,,,,,,,,
43.3096016,12.3270041,,Point,node/6872971103,hospital,yes,,Ospedale Civile di Umbertide,,,Azienda Unità Sanitaria Locale Umbria n. 1,,Umbertide,40,06019,Via Cavour,,public,+39 075 85091,http://www.uslumbria1.gov.it/pagine/direzione,,,,,,,,,,,,,,,,,,,,,,,,,,,,,,
41.7844302,12.3804859,,Point,node/6920461565,hospital,,,ASL di Casal Bernocchi,,,,,,,,,,,,,,,,,,,,,,,,,,,,,,,,,,,,,,,,,,
41.8296386,12.4890698,,Point,node/6938880587,hospital,,hospital,Studio Odontoiatrico Dominici,,yes,Studio Medico Odontoiatrico Dominici,,Roma,22,00142,Via Duccio di Buoninsegna,,private,+39 06 503 0773,http://www.studiodontoiatricodominici.com/it,,,,,,,,,,,,,,,,segreteria@studiodontoiatricodominici.com,dentist,,,,,,yes,,,,,,,
43.837217,11.198526,,Point,node/6966838431,hospital,,hospital,,,,,,,,,,,,,,,,,,,,,,,,,,,,,,,,,,,,,,,,,,,
42.8158157,10.3312592,,Point,node/7026243465,hospital,yes,hospital,Pubblica Assistenza SS Sacramento,,,Ambulanze,,Portoferraio,4,57037,Via Camerini,,private_non_profit,+39 0565 914010,,,,,,,,,,,,,,,,,,,,,,,,,,,,,,,
40.8342263,14.2203797,,Point,node/7043796872,hospital,no,hospital,ASL NAP1 Distretto 24 Centro Vaccinale,,,,,,,,,,,,,,,,,,,,,,,,,,,,,general,,,,,,,,,,,,,
40.8344114,14.2200386,,Point,node/7043803285,hospital,no,hospital,ASL NAP 1 Presidio Sanitario Polifunzionale,,,,,,,,,,,,,,,,,,,,,,,,,,,,,general,,,,,,,,,,,,,
43.9038023,10.2228628,,Point,node/7051957160,hospital,no,clinic,C.M.S. Versilia,,,,,,,,,,,,,,,,,,,,,,,,,,,,,,,,,,,,,,,,,,
40.6387511,15.8361092,,Point,node/7187911387,hospital,,,,,,,,,,,,,,,,,,,,,,,,,,,,,,,,,,,,,,,,,,,,,
41.4577867,15.5671404,,Point,node/7227002574,hospital,,,ASL FG,,,,,,,,,,,,,,,,,,,,,,,,,,,,,,,,,,,,,,,,,,
39.5310141,15.9180382,,Point,node/7281068610,hospital,yes,hospital,Ospedale Giovanni Iannelli,,,,,Cetraro,,87022,Località Testa,,,,,,,,,,,,,,,,,,,,,general,,,,,,,,,,,,,
40.4658933,16.9393893,,Point,node/7301290211,hospital,yes,hospital,Guardia medica presidio estivo,,,Azienda Unità sanitaria locale,,,,,,,public,800713931,https://castellaneta.gov.it/pubblicazioni/item/18581-servizio-di-guardia-medica-turistica-estate-2019,,,,,,,,,,,,,,,,,general,,,,,,,,,,,,,
43.868114,10.8107848,,Point,node/7313949803,hospital,yes,hospital,Pubblica Assistenza Monsummanese,,,,,Monsummano Terme,156,51015,Via Goffredo Mameli,,,,,,,,,,,IT,,,,,Regione Toscana,,,,,emergency,,,,,,,,,,,,,
42.0728534,14.4480171,,Point,node/7321804986,hospital,,hospital,San Camillo De Lellis,,,,,,,,"Via Antonio Gramsci, 4",,,,,,,,,,,,,,,,,,,,,,,,,,,,Atessa 66041,+39 0872 8641,,,,,
43.8130409,11.2488896,,Point,node/7340790398,hospital,,hospital,Ospedale Ponte Nuovo,,,,,,,,,,,,,,,,,,,,,,,,,,,,,,,,,,,,,,,,,,
43.8120682,11.2683414,,Point,node/7382883595,hospital,,,Ospedale I Fraticini,,,,,,,,,,,,,,,,,,,,,,,,,,,,,,,,,,,,,,,,,,
41.8281425,15.7734269,,Point,node/7525522735,hospital,,hospital,Polyambulatorio,,,,,,,,,,,,,,,,,,,,,,,,,,,,,,,,,,,,,,,,,,
42.3266479,13.5908324,,Point,node/7600830721,hospital,,hospital,Distretto sanitario di Barisciano,,,,,,,,,,,,,,,,,,,,,,,,,,,,,,,,,,,,,,,,,,
40.8306985,14.3122439,,Point,node/7619525386,hospital,,hospital,AZIENDA SANITARIA LOCALE NA1 - DISTR. 52,,,,,Napoli,2,80146,Via Bernardo Quaranta,,,,http://www.aslnapoli1centro.it/uopc32,,,,,,,,,,,,,,,,,,,,,,,,,,,,,,
40.8540895,14.2549082,,Point,node/7788139070,hospital,,hospital,Ospedale Santa Maria del Popolo degli Incurabili,,,,,Napoli,50,80138,Via Maria Longo,,,,,,,,,,,,,,,,,,,,,,,,,,,,,,,,,,
40.8512633,14.2437395,,Point,node/7788152939,hospital,,hospital,ex Ospedale Clinico Gesù e Maria,,,Azienda Sanitaria Locale Napoli 1 centro,,Napoli,1,80135,via Domenico Cotugno,,,,,,,,,,,,,,,,,,,,,,,,,,,,,,,,,,
40.5216216,17.2830675,,Point,node/7913496607,hospital,,hospital,Cittadella della Carita',,,,,Taranto,,74123,Piazzale Cittadella della Carita',,,+39 099 473 2111,,,,,,,,,,,,,,,,,,general,,,,,,,,,,,,,
40.5232119,17.2836736,,Point,node/7913496616,hospital,,hospital,Portineria,,,,,Taranto,,74123,Piazzale Cittadella della Carita',,,+390994732111,http://www.cittadelladellacarita.it/,,,,,,,,,,,,,,,,,,,,,,,,,,,,,,
41.8568665,12.4744766,,Point,node/7928297603,hospital,,hospital,Ospedale Pediatrico Bambino Gesù - Sede di via Baldelli,,,Ospedale Pediatrico Bambino Gesù,,Roma,41,00146,Viale Ferdinando Baldelli,,religious,+390668591,http://www.ospedalebambinogesu.it/sede-roma-baldelli,,,,,,,,,,,,,,,,,paediatrics,,,,,,,,,,,,,
40.9934992,14.2538888,,Point,node/7931893843,hospital,,hospital,Ospedale Marines USA,,,,,,,,,,,,,,,,,,,,Hospital Marines USA,,,,,private,,,,,,,,,,,,,,,,,
41.8619264,12.5689482,,Point,node/8084318945,hospital,,hospital,Farmacia Berna,,,,,,,,,,,,,,,,,,,,,,,,,,,,,,,,,,,,,,,,,,
41.7707516,12.4670727,,Point,node/8196897975,hospital,yes,hospital,Pronto Soccorso,,,,,,,,,,,,,,,,,,,,,,,,,,,,,,,,,,,,,,,,,,
42.26567,13.7695661,,Point,node/8264167025,hospital,,hospital,Distretto sanitario di Capestrano,,,,,,,,,,,,,,,,,,,,,,,,,,,,,,,,,,,,,,,,,,
43.7542183,11.271895,,Point,node/8309267055,hospital,,hospital,CUR 112 TOSCANA,,,,,Firenze,41,,Viale Michelangiolo,,,,,,,,,,,,,,,,,,,,,,,,,,,,,,,,,,
41.0867935,14.3348283,,Point,node/8345188576,hospital,,hospital,Ospedale di Caserta - LATO NUOVO,,,,,,,,,,,,,,,,,,,,,,,,,,,,,,,,,,,,,,,,,,
41.0535498,16.6970664,,Point,node/8422305340,hospital,,hospital,Guardia Medica,,,,,,,,,,,,,,,,,,,,,,,,,,,,,,,,,,,,,,,,,,
42.6255597,12.1008315,,Point,node/8431382119,hospital,,hospital,Casa della Salute,,,,,,,,,,,,,,,,,,,,,,,,,,,,,ASL,,,,,,,,,,,,,
41.3322804,15.7062624,,Point,node/8435357737,hospital,,hospital,Centro Servizi,,,,,Orta Nova,,71045,Largo Mezzana,,,,,,,,,,,,,,,,,,,,,,,,,,,,,,,,,,
41.0570021,16.7074298,,Point,node/8442526536,hospital,,hospital,Poliambulatorio,,,,,,,,,,,,,,,,,,,,,,,,,,,,,,,,,,,,,,,,,,
42.4010597,14.0521687,,Point,node/8533380846,hospital,,hospital,Croce Rossa Italiana Unità Territoriale Pianella,,,,,,,,,,,,,,,,,,,,,,,,,,,,,,,,,,,,,,,,,,
42.4820949,14.1966835,,Point,node/8541296897,hospital,,hospital,Passali Vincenzo,,,,,Pescara,,65123,Viale Kennedy,,,,,,,,,,,,,,,,,,,,,otolaryngology,,,,,,,,,,,,,
40.7259367,17.5739145,,Point,node/8566777692,hospital,,hospital,Pronto Soccorso Ostuni,,,,,,,,,,,,,,,,,,,,,,,,,,,,,,,,,,,,,,,,,,
41.0674372,15.0585824,,Point,node/8592028927,hospital,,hospital,Punto vaccinale,,,ASL,,Grottaminarda,,83035,Via Flammia,,public,,,,,,,,,,,,,,,,,,,vaccination,,,,,,,,,https://www.aslavellino.it/images/2019/12/03/presidio-sanitario-di-grottaminarda-.png,,,,
41.7339906,13.6243435,,Point,node/8594791189,hospital,,,Residenza Sanitaria Assistenziale San Camillo,,,,,,,,,,,,,,,,,,,,,,,,,,,,,,,,,,,,,,,,,,
41.2797938,14.5660592,,Point,node/8632474490,hospital,,hospital,PSAUT Primo soccorso,,,,,,,,,,,,,,,,,,,,,,,,,,,,,,,,,,,,,,,,,,
41.2244841,16.2778141,,Point,node/8741127325,hospital,,hospital,hub vaccinale covid-19,,,,,,,,,,,,,,,,,,,,,,,,,,,,,,,,,,,,,,,,,,
41.8646025,12.4518039,,Point,node/8748354181,hospital,,,Medicina nucleare,,,,,,,,,,,,,,,,,,,,,,,only department that is still operating as of 2021,,,,,,nuclear_medicine,,,,,,,,,,,,,
40.4631204,17.2640318,,Point,node/8907540730,hospital,,hospital,Consultorio familiare - ASL Distretto sanitario 4,,,Rita Liuzzi,,Taranto,,74121,Via Dante Alighieri,,public,0997786664,https://www.sanita.puglia.it/ricerca_det/-/journal_content/56/20182/gia-asl-foggia,,,,,,,,,,,,,,,,,gynaecology;psychiatry,,,,,,,,,,,,,
40.4536141,17.3179482,,Point,node/8946686208,hospital,yes,hospital,Ospedale San Cataldo,,,ASL Taranto,,Taranto,,74122,Via Alberto Sordi,,government,,https://www.sanita.puglia.it/web/asl-taranto/ospedali,,,,,,,,,,,In costruzione,,,,,,general,,,,,,,,,,,,,
41.9193176,12.4990061,,Point,node/8946857225,hospital,yes,hospital,Studio Dentistico Roselli,,,,,Roma,176,00198,Viale Regina Margherita,,,0685350769,,,,,,,,,,,,,,,,,,dentist,,,,,,,,,,,,,
43.7981184,11.2848043,,Point,node/8958310815,hospital,,,Ospedale Camerata,,,,,,,,,,,+39 055 6938568,,,,,,,,,,,,,,,,,,,,,,,,,,,,,,,
41.1196996,14.7746608,,Point,node/9027238191,hospital,,hospital,Azienda Sanitaria Locale Bn 1-Sportello C.U.P.,,,ASL,,Benevento,,82100,Via Marco Minghetti,,,,,,,,,Q3631467,,,,,,,,,,,,,,,,,,,,,,,,,
44.1358533,12.4795826,,Point,node/9041027991,hospital,yes,hospital,Guardia medica,,,,,,,,,,,,,,,,,,,,,,,,,,,,,,,,,,,,,,,,,,
42.9457516,17.1352396,,Point,node/9063472107,hospital,,hospital,,,,,,,,,,,,,,,,,,,,,,,,,,,,,,gynaecology,,,,,,,,,,,,,
40.4293795,16.8896229,,Point,node/9076661764,hospital,yes,hospital,Guardia Medica - Poliambulatrorio,,,ASL TA1,,Marina di Ginosa,,74025,Piazza D'Indipendenza,,government,099 8277411,https://www.sanita.puglia.it/ricerca_det/-/journal_content/56/36057/otorinolaringoiatria,,,,,,,,,,,,,,,,,general;otolaryngology,,,,,,,,,,yes,,,
41.6786992,12.5021226,,Point,node/9176112021,hospital,,hospital,ASL Roma 6 - Distretto H5 Pomezia,,,ASL,,,2,,Via dei Castelli Romani,,,+39 0693271,https://www.aslroma6.it/distretti/dh4-pomezia/uoc-direzione-sanitaria-di-pomezia,,,,,Q3631467,,,,,,,,,,,,,,,,,,,,,,,p,it:Azienda sanitaria locale,
43.8160606,12.5894177,,Point,node/9212133205,hospital,,hospital,Farmacia Casinina,,yes,,,Casinina,,61028,,,,,,,,,,,,,,,,,,,,,,general,,,,,,,,,,,,,
43.9787647,11.777626,,Point,node/9218766445,hospital,,hospital,Ospedale Premilcuore,,,,,,,,,,,,,,,,,,,,,,,,,,,,,,,,,,,,,,,,,,
40.8232153,17.108757,,Point,node/9224958185,hospital,no,hospital,Centro Vaccinale anti-Covid19 Putignano - Monte Laureto,,yes,ASL Bari,,Putignano,4,70017,Strada Comunale La Russa,,public,,,,,,,,,,,,,,,,,,,vaccination,,,,,,,,,,,,,
43.943188,11.9015662,,Point,node/9232450655,hospital,,hospital,Punto Primo Intervento,,,,,,,,,,,,,,,,,,,,,,,,,,,,,,,,,,,,,,,,,,
44.1037544,11.9820627,,Point,node/9289552951,hospital,,hospital,118 Romagna,,,,,,,,,,,,,,,,,,,,,,,,,,,,,,,,,,,,,,,,,,
40.7056208,17.6527025,,Point,node/9289614463,hospital,,,,,,,,,,,,,,,,,,,,,,,,,,,,,,,,,,,,,,,,,,,,,
41.7305195,13.0028905,,Point,node/9315394342,hospital,,,Aurora Hospital,,,,,,,,,,,,,,,,,,,,,,,,,,,,,,,,,,,,,,,,,,
43.7545946,11.2714303,,Point,node/9356149064,hospital,,hospital,Centrale Operativa 118 Firenze-Prato,,,,,,,,,,,,,,,,,,,,,,,,,,,,,,,,,,,,,,,,,,
43.0678386,13.6633171,,Point,node/9405244323,hospital,,hospital,Ospedale di Petritoli,,,,,,,,,,,,,,,,,,,,,,,,,,,,,,,,,,,,,,,,,,
41.4075419,13.0466703,,Point,node/9428320929,hospital,,hospital,,,,ASL,,Pontinia,,04014,Via Fratelli Bandiera,,public,,,,,,,Q3631467,,,,,,,,,,,,,,,,,,,,,,,,it:Azienda sanitaria locale,
43.3493599,11.3115549,,Point,node/9493991925,hospital,no,hospital,Casa Riposo Emmaus,,,,,,,,,,,,,,,,,,,,,,,,,,,,,geriatrics,,,,,,,,,,,,,
44.0694587,10.0822657,,Point,node/9537803685,hospital,,hospital,SERD,,,,,,,,,,,,,,,,,,,,,,,,,,,,,,,,,,,,,,,,,,
40.454478,15.004606,,Point,node/9668073307,hospital,,hospital,P.S.A.U.T. Capaccio ASL SA3,,,ASL,,Capaccio Scalo,,,Piazza Santini Carlo,,,,,,,,,Q3631467,,,,,,,,,,,,,,,,Guardia Medica di Capaccio,,,,,,,,it:Azienda sanitaria locale,Guardia Medica di Capaccio
44.0600224,15.2029217,,Point,node/9740887398,hospital,yes,hospital,Hitna pomoć,,,,,,,,,,,,,,,,,,,,,,,,,,,,,,,,,,,,,,,,,,
41.9333079,12.4315372,,Point,node/9881407317,hospital,,,Gemelli CURAE,,,,,,,,,,,,,,,,,,,,,,,,,,,,,,,,,,,,,,,,,,
43.4325859,10.5666002,,Point,node/9887745452,hospital,no,doctor,Ambulatorio medico di base,,,Medico,,Pomaia,241,56040,Via del Commercio sud,,public,,,,,,,,,,,,,,,,,,,general,,,,,,,,,,,,,
40.8775836,14.2708869,,Point,node/9966553303,hospital,,hospital,ASL Napoli 1 Centro,,,ASL,,Napoli,232,80141,Calata Capodichino,,,,,,,,,Q3631467,,,,,,,,,,,,,,,,,,,,,,,,,
44.3489923,11.6360583,,Point,node/10075694119,hospital,,hospital,Ingresso,,,,,,,,,,,,,,,,,,,,,,,,,,,,,,,,,,,,,,,,,,
43.6232803,11.5546892,,Point,node/10103279948,hospital,,hospital,Misericordia Castelfranco Di Sopra,,,,,,,,,,,,,,,,,,,,,,,,,,,,,,,,,,,,,,,,,,
43.9474799,15.447512,,Point,node/10137652372,hospital,,hospital,Internistička ambulanta,,,,,,,,,,,,,,,,,,,,,,,,,,,,,,,,,,,,,,,,,,
